FLOCK 4G-21             
1 62651U 25009AU  26068.19487675  .00013648  00000+0  49619-3 0  9998
2 62651  97.4032 151.1274 0000465 329.5782  30.5431 15.28381075 63677
STARLINK-34076          
1 63915U 25095AB  26068.32993305  .00042303  00000+0  15376-2 0  9996
2 63915  42.9964 178.1680 0000672 245.5679 114.5103 15.27588334 47725
