[{"OBJECT_NAME":"FLOCK 4G-21","OBJECT_ID":"2025-009AU","EPOCH":"2026-03-09T04:40:37.351200","MEAN_MOTION":15.28381075,"ECCENTRICITY":4.655e-5,"INCLINATION":97.4032,"RA_OF_ASC_NODE":151.1274,"ARG_OF_PERICENTER":329.5782,"MEAN_ANOMALY":30.5431,"EPHEMERIS_TYPE":0,"CLASSIFICATION_TYPE":"U","NORAD_CAT_ID":62651,"ELEMENT_SET_NO":999,"REV_AT_EPOCH":6367,"BSTAR":0.00049618643,"MEAN_MOTION_DOT":0.00013648,"MEAN_MOTION_DDOT":0},{"OBJECT_NAME":"STARLINK-34076","OBJECT_ID":"2025-095AB","EPOCH":"2026-03-09T07:55:06.215520","MEAN_MOTION":15.27588334,"ECCENTRICITY":6.723e-5,"INCLINATION":42.9964,"RA_OF_ASC_NODE":178.168,"ARG_OF_PERICENTER":245.5679,"MEAN_ANOMALY":114.5103,"EPHEMERIS_TYPE":0,"CLASSIFICATION_TYPE":"U","NORAD_CAT_ID":63915,"ELEMENT_SET_NO":999,"REV_AT_EPOCH":4772,"BSTAR":0.0015376144,"MEAN_MOTION_DOT":0.00042303,"MEAN_MOTION_DDOT":0}]
